source_id,station_network_code,station_code,station_location_code,station_channels,station_latitude_deg,station_longitude_deg,station_elevation_m,station_vs_30_mps,station_vs_30_detail,source_origin_time,source_latitude_deg,source_longitude_deg,source_depth_km,source_origin_uncertainty_s,source_latitude_uncertainty_deg,source_longitude_uncertainty_deg,source_depth_uncertainty_km,source_stderror_s,source_gap_deg,source_horizontal_uncertainty_km,source_magnitude,source_magnitude_type,source_mt_eval_mode,source_mt_status,source_mt_scalar_moment_Nm,source_mechanism_strike_dip_rake,source_mechanism_moment_tensor,path_travel_time_P_s,path_travel_time_S_s,path_residual_P_s,path_residual_S_s,path_ep_distance_km,path_hyp_distance_km,path_azimuth_deg,path_backazimuth_deg,path_weight_phase_location_P,path_weight_phase_location_S,trace_start_time,trace_dt_s,trace_npts,trace_eval_P,trace_P_uncertainty_s,trace_P_arrival_time,trace_polarity,trace_eval_S,trace_S_uncertainty_s,trace_S_arrival_time,trace_P_arrival_sample,trace_S_arrival_sample,trace_E_median_counts,trace_N_median_counts,trace_Z_median_counts,trace_E_mean_counts,trace_N_mean_counts,trace_Z_mean_counts,trace_E_min_counts,trace_N_min_counts,trace_Z_min_counts,trace_E_max_counts,trace_N_max_counts,trace_Z_max_counts,trace_E_rms_counts,trace_N_rms_counts,trace_Z_rms_counts,trace_E_lower_quartile_counts,trace_N_lower_quartile_counts,trace_Z_lower_quartile_counts,trace_E_upper_quartile_counts,trace_N_upper_quartile_counts,trace_Z_upper_quartile_counts,trace_E_spikes,trace_N_spikes,trace_Z_spikes,trace_E_snr_db,trace_N_snr_db,trace_Z_snr_db,trace_E_pga_cmps2,trace_E_pgv_cmps,trace_E_pga_perc,trace_E_pga_time,trace_E_pgv_time,trace_E_sa03_cmps2,trace_E_sa10_cmps2,trace_E_sa30_cmps2,trace_N_pga_cmps2,trace_N_pgv_cmps,trace_N_pga_perc,trace_N_pga_time,trace_N_pgv_time,trace_N_sa03_cmps2,trace_N_sa10_cmps2,trace_N_sa30_cmps2,trace_Z_pga_cmps2,trace_Z_pgv_cmps,trace_Z_pga_perc,trace_Z_pga_time,trace_Z_pgv_time,trace_Z_sa03_cmps2,trace_Z_sa10_cmps2,trace_Z_sa30_cmps2,trace_pga_cmps2,trace_pgv_cmps,trace_pga_perc,trace_sa03_cmps2,trace_sa10_cmps2,trace_sa30_cmps2,trace_name,trace_GPD_P_number,trace_GPD_S_number,trace_EQT_number_detections,trace_EQT_P_number,trace_EQT_S_number,trace_deconvolved_units,source_type
10000641,IV,PTQR,,HH,42.02193,13.40057,957.0,664.0,Vs30 extracted from ShakeMap,2016-11-16 01:39:14.750000+00:00,42.8823,13.1667,7.6,0.03,0.0018,0.0037,0.2,0.22,56.0,0.25,3.0,ML,,,,,,16.58,,-0.3,,97.489,97.784,168.5,348.7,40.0,,2016-11-16T01:39:12.04Z,0.01,12000,manual,0.6,2016-11-16T01:39:31.33Z,undecidable,,,,1928,,3.0,0.0,0.0,-0.02525,-0.00992,0.011,-707.0,-483.0,-469.0,492.0,424.0,374.0,90.82,72.827,68.354,-34.0,-28.0,-27.0,38.0,28.0,26.0,0.0,0.0,0.0,14.269,14.731,15.055,0.00364571,0.00030251,0.00037176,2016-11-16T01:39:53.510200Z,2016-11-16T01:39:57.780200Z,0.01165621949394,0.0038208404950449,0.000734501413695,0.002579,0.00020118,0.00026298,2016-11-16T01:39:54.650200Z,2016-11-16T01:39:54.590200Z,0.00876455810573,0.002013127744635,0.0004180300308799,0.00221171,0.00019861,0.00022553,2016-11-16T01:39:53.940000Z,2016-11-16T01:39:54.030000Z,0.006359025106665,0.0027099176857549,0.0004792617728149,0.00364571,0.00030251,0.00037176,0.01165621949394,0.0038208414757099,0.000734501413695,10000641.IV.PTQR..HH,0.0,0.0,1.0,1.0,1.0,mps,earthquake
10000641,IV,SEF1,,HN,43.14683,12.94762,518.0,485.0,Vs30 measured on field,2016-11-16 01:39:14.750000+00:00,42.8823,13.1667,7.6,0.03,0.0018,0.0037,0.2,0.22,56.0,0.25,3.0,ML,,,,,,7.4,11.72,0.43,-0.34,34.389,35.219,328.8,148.6,65.0,44.0,2016-11-16T01:39:05.76Z,0.01,12000,manual,0.3,2016-11-16T01:39:22.15Z,negative,manual,0.6,2016-11-16T01:39:26.47Z,1639,2071.0,0.0,0.0,0.0,-0.01517,0.005,0.01425,-644.0,-808.0,-990.0,778.0,739.0,953.0,45.226,51.949,66.119,-8.0,-11.0,-8.0,8.0,11.0,8.0,0.0,0.0,0.0,23.619,23.352,24.339,0.41533499,0.00941526,0.04235238,2016-11-16T01:39:28.105000Z,2016-11-16T01:39:36.505000Z,0.6070359577713199,0.0275814021999949,0.007887330707935,0.41970823,0.01738791,0.04279833,2016-11-16T01:39:27.475000Z,2016-11-16T01:39:27.505000Z,0.50165332225729,0.0313069524576549,0.013788688285085,0.51497494,0.01753306,0.05251283,2016-11-16T01:39:27.875200Z,2016-11-16T01:39:27.905200Z,0.32144771440159,0.022432240175135,0.0147260971325999,0.41970825,0.01738791,0.04279833,0.607035949926,0.03130695343832,0.01378868926575,10000641.IV.SEF1..HN,,,,,,mps2,earthquake
10000641,IV,T1215,,EH,42.80188,12.868511,695.0,819.0,Vs30 extracted from ShakeMap,2016-11-16 01:39:14.750000+00:00,42.8823,13.1667,7.6,0.03,0.0018,0.0037,0.2,0.22,56.0,0.25,3.0,ML,,,,,,5.55,9.52,0.07,0.04,25.962,27.052,250.0,69.8,71.0,48.0,2016-11-16T01:38:58.31Z,0.01,12000,manual,0.3,2016-11-16T01:39:20.30Z,positive,manual,0.6,2016-11-16T01:39:24.27Z,2199,2596.0,0.0,0.0,0.0,0.00408,0.01225,0.00333,-13182.0,-13129.0,-12832.0,12564.0,15750.0,10165.0,857.536,864.716,733.568,-20.0,-21.0,-20.0,21.0,19.0,19.0,0.0,0.0,0.0,52.942,51.516,55.318,0.22921712,0.00530677,0.02337364,2016-11-16T01:39:24.942000Z,2016-11-16T01:39:24.622000Z,0.282965938295075,0.0198472768623499,0.0041800816205049,0.32588944,0.0062459,0.03323147,2016-11-16T01:39:24.712000Z,2016-11-16T01:39:24.652000Z,0.218434239021775,0.0205951378753399,0.002242167939375,0.16922864,0.00498425,0.01725652,2016-11-16T01:39:25.822000Z,2016-11-16T01:39:25.232000Z,0.22077052334253,0.02395565912271,0.003898885738405,0.32588944,0.0062459,0.03323148,0.28296595300505,0.0205951378753399,0.0041800816205049,10000641.IV.T1215..EH,1.0,2.0,1.0,1.0,1.0,mps,earthquake
10000641,IV,T1215,,HN,42.80188,12.868511,695.0,819.0,Vs30 extracted from ShakeMap,2016-11-16 01:39:14.750000+00:00,42.8823,13.1667,7.6,0.03,0.0018,0.0037,0.2,0.22,56.0,0.25,3.0,ML,,,,,,5.55,9.52,0.07,0.04,25.962,27.052,250.0,69.8,71.0,48.0,2016-11-16T01:38:53.28Z,0.01,12000,manual,0.3,2016-11-16T01:39:20.30Z,positive,manual,0.6,2016-11-16T01:39:24.27Z,2702,3099.0,0.0,0.0,0.0,0.01183,0.00558,-0.00258,-894.0,-1057.0,-615.0,775.0,1260.0,654.0,54.216,65.21,37.723,-1.0,-1.0,-1.0,1.0,1.0,1.0,0.0,0.0,0.0,44.27,45.279,42.826,0.25958002,0.00510858,0.0264698,2016-11-16T01:39:24.940000Z,2016-11-16T01:39:24.620000Z,0.26385790338103,0.020395291096985,0.00333193093996,0.39961956,0.00593053,0.04074985,2016-11-16T01:39:24.710000Z,2016-11-16T01:39:24.640000Z,0.2382929229794049,0.0199380334854399,0.0018357813440399,0.20422188,0.00499111,0.02082484,2016-11-16T01:39:25.820000Z,2016-11-16T01:39:25.230000Z,0.22045358418251,0.0242291822818499,0.002993223958935,0.39961955,0.00593053,0.04074986,0.263857921033,0.020395291096985,0.00333193093996,10000641.IV.T1215..HN,,,,,,mps2,earthquake
